[{"OBJECT_NAME":"BISONSAT","OBJECT_ID":"2015-058L","EPOCH":"2026-03-09T11:49:35.353056","MEAN_MOTION":15.13791398,"ECCENTRICITY":0.00792382,"INCLINATION":64.7598,"RA_OF_ASC_NODE":135.3937,"ARG_OF_PERICENTER":90.6713,"MEAN_ANOMALY":270.349,"EPHEMERIS_TYPE":0,"CLASSIFICATION_TYPE":"U","NORAD_CAT_ID":40974,"ELEMENT_SET_NO":999,"REV_AT_EPOCH":10051,"BSTAR":0.0006711096,"MEAN_MOTION_DOT":0.00012971,"MEAN_MOTION_DDOT":0},{"OBJECT_NAME":"STARLINK-36236","OBJECT_ID":"2025-298D","EPOCH":"2026-03-09T22:52:09.740064","MEAN_MOTION":14.98333747,"ECCENTRICITY":0.00038974,"INCLINATION":70.0013,"RA_OF_ASC_NODE":13.9198,"ARG_OF_PERICENTER":255.8336,"MEAN_ANOMALY":104.2391,"EPHEMERIS_TYPE":0,"CLASSIFICATION_TYPE":"U","NORAD_CAT_ID":67078,"ELEMENT_SET_NO":999,"REV_AT_EPOCH":1325,"BSTAR":0.00052810907,"MEAN_MOTION_DOT":6.215e-5,"MEAN_MOTION_DDOT":0}]
